      2.10          N: GNSS NAV DATA                        RINEX VERSION / TYPE
fic2rin                                 01/23/2019 00:19:36 PGM / RUN BY / DATE
                                                            END OF HEADER
15 19  1 22 23 59 28.0-3.311149775982e-04 1.591615728103e-12 0.000000000000e+00
    5.000000000000e+00 4.812500000000e+01 5.508800892240e-09 1.111968245255e-01
    2.622604370117e-06 1.120441255625e-02 8.320435881615e-06 5.153621885300e+03
    2.591680000000e+05 2.607703208923e-08 1.273671965367e+00 2.533197402954e-07
    9.277075352683e-01 2.024375000000e+02 7.580386021848e-01-8.659289265584e-09
    7.282446200258e-10 1.000000000000e+00 2.037000000000e+03 0.000000000000e+00
    2.400000000000e+00 0.000000000000e+00-1.071020960808e-08 5.000000000000e+00
    2.574060000000e+05 4.000000000000e+00
31 19  1 22 23 59 28.0 6.388779729605e-05-2.614797267597e-12 0.000000000000e+00
    1.600000000000e+01-3.284375000000e+01 5.061639409027e-09-2.204028960847e+00
   -1.840293407440e-06 9.262817329727e-03 6.660819053650e-06 5.153541728973e+03
    2.591680000000e+05-1.210719347000e-07 2.441139533592e+00-1.806765794754e-07
    9.609102092644e-01 2.546250000000e+02-2.840800534174e-02-8.234271561891e-09
   -4.121600252623e-10 1.000000000000e+00 2.037000000000e+03 0.000000000000e+00
    2.400000000000e+00 0.000000000000e+00-1.350417733192e-08 1.600000000000e+01
    2.577060000000e+05 4.000000000000e+00
24 19  1 22 23 59 44.0-6.116135045886e-05-5.684341886081e-13 0.000000000000e+00
    1.800000000000e+01-3.340625000000e+01 5.585946962827e-09-8.525543950555e-01
   -1.654028892517e-06 8.092965348624e-03 5.541369318962e-06 5.153719823837e+03
    2.591840000000e+05 1.490116119385e-07 2.363775100538e+00 8.381903171539e-08
    9.393826031589e-01 2.599687500000e+02 5.841920666073e-01-8.596429504366e-09
   -3.843017219950e-10 1.000000000000e+00 2.037000000000e+03 0.000000000000e+00
    2.400000000000e+00 0.000000000000e+00 2.793967723846e-09 1.800000000000e+01
    2.581560000000e+05 4.000000000000e+00
